username,email,password,password_confirmation,depot_number,depot_name,address1,address2,address3,address4,postcode
liverpool136,liverpool@brandonhire.co.uk,Orders1,Orders1,136,Aintree - Liverpool,UNIT 3A,AINTREE RACECOURSE BUSINESS PARK,"ORMSKIRK ROAD, AINTREE",LIVERPOOL,L9 5AY
alfreton908,alfreton@brandonhire.co.uk,Orders1,Orders1,908,Alfreton,105 - 107 NOTTINGHAM ROAD,ALFRETON,DERBYSHIRE,,DE55 7GR
altrincham210,altrincham210@brandonhire.co.uk,Orders1,Orders1,210,Altrincham,C/O BUILD CENTER,325 BROOK STREET,PRESTON,LANCS,PR1 7NH
bedford248,bedford248@brandonhire.co.uk,Orders1,Orders1,248,Bedford,C/O BUILD CENTER,WINDSOR ROAD,BEDFORD,,MK42 9SU
bishopauckland053,bishopauckland@brandonhire.co.uk,Orders1,Orders1,053,BISHOP AUCKLAND,ST HELENS INDUSTRIAL ESTATE,BISHOP AUCKLAND,COUNTY DURHAM,,DL14 9AX
bolton144,bolton144@brandonhire.co.uk,Orders1,Orders1,144,Bolton,C/O BUILD CENTER,MOSS LANE,ALTRINCHAM,CHESHIRE,WA15 8HL
bootle148,bootle148@brandonhire.co.uk,Orders1,Orders1,148,Bootle,UNIT 2 MOTTRAM WAY,HURDSFIELD INDUSTRIAL ESTATE,MACCLESFIELD,CHESHIRE,SK10 2DH
burton097,burton@brandonhire.co.uk,Orders1,Orders1,97,Burton,ROSS ROAD,LEDBURY,HEREFORDSHIRE,,HR8 2HS
burystedmunds119,burystedmunds@brandonhire.co.uk,Orders1,Orders1,119,Bury St Edmunds,"UNIT 12, BUNTING ROAD",MORETON HALL INDUSTRIAL ESTATE,BURY ST EDMUNDS,SUFFOLK,IP32 7BX
cambridge128,cambridge@brandonhire.co.uk,Orders1,Orders1,128,Cambridge,UNIT 22,CLIFTON ROAD INDUSTRIAL EST.,CAMBRIDGE,,CB1 7EB
chester141,chester141@brandonhire.co.uk,Orders1,Orders1,141,Chester,10A BUMPERS LANE,SEALAND INDUSTRIAL ESTATE,CHESTER,,CH1 4LT
birmingham156,birmingham156@brandonhire.co.uk,Orders1,Orders1,156,Constitution Hill - Birmingham,FULLARD HOUSE,NEACHELLS LANE,WEDNESFIELD,WEST MIDLANDS,WV11 3QG
coventry905,coventry@brandonhire.co.uk,Orders1,Orders1,905,Coventry,C/O BUILD CENTER,709 LEEK ROAD,HANLEY,"STOKE ON TRENT,",ST1 3NG
darlington316,darlington316@brandonhire.co.uk,Orders1,Orders1,316,DARLINGTON ,C/O BUILD CENTER,LINGFIELD WAY,YARM ROAD INDUSTRIAL EST.,DARLINGTON,DL1 4PX
doncaster161,doncaster161@brandonhire.co.uk,Orders1,Orders1,161,Doncaster,UNIT 29,WHEATLEY HALL BUSINESS CENTRE,WHEATLEY HALL ROAD,DONCASTER,DN2 4LP
ellesmereport116,ellesmereport@brandonhire.co.uk,Orders1,Orders1,116,Ellesmere Port,8 - 10 PRINCES ROAD,ELLESMERE PORT,SOTH WIRRAL,,CH65 8AX
evesham040,evesham@brandonhire.co.uk,Orders1,Orders1,40,Evesham,326 WORCESTER ROAD,MALVERN LINK,WORCS,,WR14 1BD
grimsby140,grimsby140@brandonhire.co.uk,Orders1,Orders1,140,Grimsby,RENDEL STREET,GRIMSBY,,,DN31 1SF
stokeontrent276,stokeontrent276@brandonhire.co.uk,Orders1,Orders1,276,Hanley - Stoke on Trent,BRANDON WAY,WEST BROMWICH,WEST MIDLANDS,,B70 8JH
hull138,hull138@brandonhire.co.uk,Orders1,Orders1,138,Hull,"UNIT A, ROTTERDAM PARK",ROTTERDAM ROAD,SUTTON FIELDS,HULL,HU7 0XD
ipswich126,ipswich@brandonhire.co.uk,Orders1,Orders1,126,Ipswich,UNIT 3 FARTHING ROAD IND EST,SPROUGHTON ROAD,IPSWICH,,IP1 5AP
kingslynn129,kingslynn@brandonhire.co.uk,Orders1,Orders1,129,Kings Lynn,"UNIT 6, FRESIAN WAY",HARDWICK NARROWS,KINGS LYNN,NORFOLK,PE30 4NB
ledbury063,ledbury@brandonhire.co.uk,Orders1,Orders1,63,Ledbury,SOUTH STREET,RUGBY,,,CV21 3UR
leeds052,leeds@brandonhire.co.uk,Orders1,Orders1,52,Leeds,1 STADIUM WAY,ELLAND ROAD,LEEDS,,LS11 0EW
leicester214,leicester214@brandonhire.co.uk,Orders1,Orders1,214,Leicester,1 BRAUNSTONE LANE EAST,BRAUNSTONE,LEICESTER,,LE3 2FD
llandudno313,llandudno313@brandonhire.co.uk,Orders1,Orders1,313,Llandudno,345 STANLEY ROAD,BOOTLE,LIVERPOOL,,L20 2AE
llangefni253,llangefni253@brandonhire.co.uk,Orders1,Orders1,253,Llangefni,STENPLAS WORKS,GRECIAN CRESCENT,BOLTON,LANCS,BL3 6QS
macclesfield143,macclesfield143@brandonhire.co.uk,Orders1,Orders1,143,Macclesfield,665 ECCLES NEW ROAD,SALFORD,MANCHESTER,,M50 1AY
mansfield903,mansfield@brandonhire.co.uk,Orders1,Orders1,903,Mansfield,48A RATCLIFFE GATE,MANSFIELD,"NOTTS,",,NG18 2JL
marketharborough122,marketharborough@brandonhire.co.uk,Orders1,Orders1,122,Market Harborough,LEICESTER ROAD,MARKET HARBOROUGH,,,LE16 7AY
middlesbrough057,middlesbrough@brandonhire.co.uk,Orders1,Orders1,057,MIDDLESBROUGH ,2-3 Cannon Park Road,Middlesbrough,,,TS1 5JP
newcastle58,newcastle304@brandonhire.co.uk,Orders1,Orders1,058,NEWCASTLE ,FISHER STREET,NEWCASTLE-UPON-TYNE,,,NE6 4LT
newcastle304,newcastle58@brandonhire.co.uk,Orders1,Orders1,304,NEWCASTLE ,C/O ATKINSON BC,WESLEY WAY,BENSON SQUARE INDUSTRIAL ESTATE,NEWCASTLE UPON TYNE,NE12 9TA
northampton114,northampton@brandonhire.co.uk,Orders1,Orders1,114,Northampton,71 LEA ROAD,ABINGTON,NORTHAMPTON,,NN1 4PE
norwich127,norwich@brandonhire.co.uk,Orders1,Orders1,127,Norwich,89 OAK STREET,NORWICH,NORFOLK,,NR3 3BP
nottingham904,nottingham@brandonhire.co.uk,Orders1,Orders1,904,Nottingham,UNITS 9-10 SALISBURY SQUARE,SALISBURY STREET,NOTTINGHAM,,NG7 2AB
preston281,preston281@brandonhire.co.uk,Orders1,Orders1,281,Preston,BUILDER STREET WEST,LLANDUDNO,GWYNEDD,,LL30 1HH
redditch157,redditch157@brandonhire.co.uk,Orders1,Orders1,157,Redditch,1 HOWARD STREET,CONSTITUTION HILL,BIRMINGHAM,,B19 3HW
retford286,retford286@brandonhire.co.uk,Orders1,Orders1,286,Retford,C/O BUILD CENTER,NEW STREET,RETFORD,NOTTS,DN22 6EQ
rotherham288,rotherham288@brandonhire.co.uk,Orders1,Orders1,288,Rotherham,C/O BUILD CENTER,MANGHAM ROAD,BARBOT HALL INDUSTRIAL EST.,ROTHERHAM,S62 6EF
rugby045,rugby@brandonhire.co.uk,Orders1,Orders1,45,Rugby,"UNIT 3, GROSVENOR BUSINESS PARK","ENTERPRISE WAY, VALE PARK",EVESHAM,WORCESTER,WR11 1GS
salford164,salford164@brandonhire.plc.uk,Orders1,Orders1,164,Salford,C/O BUILD CENTER,INDUSTRIAL ESTATE,"LLANGEFNI, YNYS MON",GWYNEDD,LL77 7JA
sheffield132,sheffield@brandonhire.co.uk,Orders1,Orders1,132,Sheffield City,120 - 140 ST MARY'S ROAD,SHEFFIELD,,,S2 4AW
sunderland306,sunderland306@brandonhire.co.uk,Orders1,Orders1,306,SUNDERLAND ,WOODBINE STREET,HENDON,SUNDERLAND,TYNE & WEAR,SR1 2NL
telford223,telford223@brandonhire.co.uk,Orders1,Orders1,223,Telford,UNIT 3,CLIVE ROAD,REDDITCH,,B97 4BT
wallasey115,wallasey@brandonhire.co.uk,Orders1,Orders1,115,Wallasey,380 - 384 POULTON ROAD,WALLASEY,MERSEYSIDE,,CH44 4DD
westbromwich243,westbromwich243@brandonhire.co.uk,Orders1,Orders1,243,West Bromwich,C/O BUILD CENTER,WATLING STREET,WELLINGTON,"TELFORD,",TF1 2NJ
wolverhampton112,wolverhampton@brandonhire.co.uk,Orders1,Orders1,112,Wolverhampton,RUSSELL STREET,BURTON ON TRENT,,,DE14 1EN
worcester038,worcester@brandonhire.co.uk,Orders1,Orders1,38,Worcester,UNIT 1A,WORCESTER TRADING ESTATE,"BLACKPOLE ROAD, BLACKPOLE",WORCESTER,WR3 8HR
York231,york231@brandonhire.co.uk,Orders1,Orders1,231,York,C/O BUILD CENTER,1 HAZEL COURT,PHOENIX BUSINESS PARK,"JAMES STREET, YORK",YO10 3DS